[{"OBJECT_NAME":"STARLINK-4137","OBJECT_ID":"2022-076AX","EPOCH":"2026-03-09T05:22:21.793440","MEAN_MOTION":15.08842432,"ECCENTRICITY":0.00013785,"INCLINATION":53.2171,"RA_OF_ASC_NODE":76.2113,"ARG_OF_PERICENTER":97.5661,"MEAN_ANOMALY":262.5488,"EPHEMERIS_TYPE":0,"CLASSIFICATION_TYPE":"U","NORAD_CAT_ID":53031,"ELEMENT_SET_NO":999,"REV_AT_EPOCH":20305,"BSTAR":-2.54542e-7,"MEAN_MOTION_DOT":-2.92e-6,"MEAN_MOTION_DDOT":0},{"OBJECT_NAME":"OBJECT G","OBJECT_ID":"2026-027G","EPOCH":"2026-03-09T21:53:37.288032","MEAN_MOTION":15.12145257,"ECCENTRICITY":0.00120269,"INCLINATION":97.4906,"RA_OF_ASC_NODE":197.8999,"ARG_OF_PERICENTER":227.3105,"MEAN_ANOMALY":132.7114,"EPHEMERIS_TYPE":0,"CLASSIFICATION_TYPE":"U","NORAD_CAT_ID":67752,"ELEMENT_SET_NO":999,"REV_AT_EPOCH":389,"BSTAR":0.00053594907,"MEAN_MOTION_DOT":9.195e-5,"MEAN_MOTION_DDOT":0}]
